{"type": "FeatureCollection", "features": [ {"type": "Feature", "properties": {"norad_id": 35038, "name": "COSMOS 2251 DEB", "group": "cosmos-2251-debris", "lat": 64.20179059290929, "lon": -167.38929380798973, "alt_km": 782.1502922915015, "timestamp": "2025-12-09T07:41:33.607591+00:00", "meta": {"OBJECT_NAME": "COSMOS 2251 DEB", "OBJECT_ID": "1993-036AHB", "EPOCH": "2025-12-07T04:47:00.892896", "MEAN_MOTION": 14.25090791, "ECCENTRICITY": 0.01137219, "INCLINATION": 74.1064, "RA_OF_ASC_NODE": 52.5358, "ARG_OF_PERICENTER": 37.9776, "MEAN_ANOMALY": 353.0868, "EPHEMERIS_TYPE": 0, "CLASSIFICATION_TYPE": "U", "NORAD_CAT_ID": 35038, "ELEMENT_SET_NO": 999, "REV_AT_EPOCH": 85490, "BSTAR": 0.0014810434, "MEAN_MOTION_DOT": 3.692e-05, "MEAN_MOTION_DDOT": 0}, "tle": {"line1": "1 35038U 93036AHB 25341.19931589  .00003692  00000+0  14810-2 0  9995", "line2": "2 35038  74.1064  52.5358 0113721  37.9776 353.0868 14.25090791854902"}}, "geometry": {"type": "Point", "coordinates": [-167.38929380798973, 64.20179059290929]}}, {"type": "Feature", "properties": {"norad_id": 35043, "name": "COSMOS 2251 DEB", "group": "cosmos-2251-debris", "lat": 32.50292698692438, "lon": 62.882352425880946, "alt_km": 682.7952071671607, "timestamp": "2025-12-09T07:41:33.607601+00:00", "meta": {"OBJECT_NAME": "COSMOS 2251 DEB", "OBJECT_ID": "1993-036AHG", "EPOCH": "2025-12-08T15:16:40.987200", "MEAN_MOTION": 14.76607289, "ECCENTRICITY": 0.00971947, "INCLINATION": 73.9521, "RA_OF_ASC_NODE": 53.6612, "ARG_OF_PERICENTER": 263.6892, "MEAN_ANOMALY": 95.3205, "EPHEMERIS_TYPE": 0, "CLASSIFICATION_TYPE": "U", "NORAD_CAT_ID": 35043, "ELEMENT_SET_NO": 999, "REV_AT_EPOCH": 67358, "BSTAR": 0.0050297158, "MEAN_MOTION_DOT": 0.00038141, "MEAN_MOTION_DDOT": 0}, "tle": {"line1": "1 35043U 93036AHG 25342.63658550  .00038141  00000+0  50297-2 0  9991", "line2": "2 35043  73.9521  53.6612 0097194 263.6892  95.3205 14.76607289673586"}}, "geometry": {"type": "Point", "coordinates": [62.882352425880946, 32.50292698692438]}}, {"type": "Feature", "properties": {"norad_id": 35045, "name": "COSMOS 2251 DEB", "group": "cosmos-2251-debris", "lat": 71.42298149204137, "lon": 119.14475093563418, "alt_km": 985.9683121682247, "timestamp": "2025-12-09T07:41:33.607612+00:00", "meta": {"OBJECT_NAME": "COSMOS 2251 DEB", "OBJECT_ID": "1993-036AHJ", "EPOCH": "2025-12-06T22:43:41.331360", "MEAN_MOTION": 14.0036659, "ECCENTRICITY": 0.0183364, "INCLINATION": 73.7196, "RA_OF_ASC_NODE": 62.9336, "ARG_OF_PERICENTER": 305.7539, "MEAN_ANOMALY": 52.6659, "EPHEMERIS_TYPE": 0, "CLASSIFICATION_TYPE": "U", "NORAD_CAT_ID": 35045, "ELEMENT_SET_NO": 999, "REV_AT_EPOCH": 84562, "BSTAR": 0.0010227315, "MEAN_MOTION_DOT": 1.724e-05, "MEAN_MOTION_DDOT": 0}, "tle": {"line1": "1 35045U 93036AHJ 25340.94700615  .00001724  00000+0  10227-2 0  9991", "line2": "2 35045  73.7196  62.9336 0183364 305.7539  52.6659 14.00366590845620"}}, "geometry": {"type": "Point", "coordinates": [119.14475093563418, 71.42298149204137]}}, {"type": "Feature", "properties": {"norad_id": 35060, "name": "COSMOS 2251 DEB", "group": "cosmos-2251-debris", "lat": -18.804736962439357, "lon": 76.2616924214124, "alt_km": 767.2964670765623, "timestamp": "2025-12-09T07:41:33.607622+00:00", "meta": {"OBJECT_NAME": "COSMOS 2251 DEB", "OBJECT_ID": "1993-036AHP", "EPOCH": "2025-11-28T02:37:07.839264", "MEAN_MOTION": 14.41547968, "ECCENTRICITY": 0.00179641, "INCLINATION": 74.0363, "RA_OF_ASC_NODE": 271.4275, "ARG_OF_PERICENTER": 359.5881, "MEAN_ANOMALY": 0.5257, "EPHEMERIS_TYPE": 0, "CLASSIFICATION_TYPE": "U", "NORAD_CAT_ID": 35060, "ELEMENT_SET_NO": 999, "REV_AT_EPOCH": 87031, "BSTAR": 0.0004076845, "MEAN_MOTION_DOT": 1.301e-05, "MEAN_MOTION_DDOT": 0}, "tle": {"line1": "1 35060U 93036AHP 25332.10911851  .00001301  00000+0  40768-3 0  9998", "line2": "2 35060  74.0363 271.4275 0017964 359.5881   0.5257 14.41547968870310"}}, "geometry": {"type": "Point", "coordinates": [76.2616924214124, -18.804736962439357]}}, {"type": "Feature", "properties": {"norad_id": 35061, "name": "COSMOS 2251 DEB", "group": "cosmos-2251-debris", "lat": 54.498504602834686, "lon": 108.68443346848267, "alt_km": 647.9703480702619, "timestamp": "2025-12-09T07:41:33.607632+00:00", "meta": {"OBJECT_NAME": "COSMOS 2251 DEB", "OBJECT_ID": "1993-036AHQ", "EPOCH": "2025-12-08T21:19:37.860096", "MEAN_MOTION": 14.67771775, "ECCENTRICITY": 0.00389873, "INCLINATION": 74.0463, "RA_OF_ASC_NODE": 313.16, "ARG_OF_PERICENTER": 65.1755, "MEAN_ANOMALY": 295.3461, "EPHEMERIS_TYPE": 0, "CLASSIFICATION_TYPE": "U", "NORAD_CAT_ID": 35061, "ELEMENT_SET_NO": 999, "REV_AT_EPOCH": 88518, "BSTAR": 0.0010302707, "MEAN_MOTION_DOT": 5.916e-05, "MEAN_MOTION_DDOT": 0}, "tle": {"line1": "1 35061U 93036AHQ 25342.88863264  .00005916  00000+0  10303-2 0  9996", "line2": "2 35061  74.0463 313.1600 0038987  65.1755 295.3461 14.67771775885181"}}, "geometry": {"type": "Point", "coordinates": [108.68443346848267, 54.498504602834686]}}, {"type": "Feature", "properties": {"norad_id": 35062, "name": "COSMOS 2251 DEB", "group": "cosmos-2251-debris", "lat": 8.217563224383648, "lon": 101.73813209459574, "alt_km": 818.2647151647652, "timestamp": "2025-12-09T07:41:33.607642+00:00", "meta": {"OBJECT_NAME": "COSMOS 2251 DEB", "OBJECT_ID": "1993-036AHR", "EPOCH": "2025-12-08T08:01:44.515200", "MEAN_MOTION": 14.2287727, "ECCENTRICITY": 0.01278726, "INCLINATION": 74.0789, "RA_OF_ASC_NODE": 101.1426, "ARG_OF_PERICENTER": 102.1505, "MEAN_ANOMALY": 259.4, "EPHEMERIS_TYPE": 0, "CLASSIFICATION_TYPE": "U", "NORAD_CAT_ID": 35062, "ELEMENT_SET_NO": 999, "REV_AT_EPOCH": 85436, "BSTAR": 0.0023515819, "MEAN_MOTION_DOT": 5.727e-05, "MEAN_MOTION_DDOT": 0}, "tle": {"line1": "1 35062U 93036AHR 25342.33454300  .00005727  00000+0  23516-2 0  9994", "line2": "2 35062  74.0789 101.1426 0127872 102.1505 259.4000 14.22877270854365"}}, "geometry": {"type": "Point", "coordinates": [101.73813209459574, 8.217563224383648]}}, {"type": "Feature", "properties": {"norad_id": 35065, "name": "COSMOS 2251 DEB", "group": "cosmos-2251-debris", "lat": 41.08197699798875, "lon": 6.252135957105604, "alt_km": 749.9123560638891, "timestamp": "2025-12-09T07:41:33.607653+00:00", "meta": {"OBJECT_NAME": "COSMOS 2251 DEB", "OBJECT_ID": "1993-036AHU", "EPOCH": "2025-12-08T21:05:49.872480", "MEAN_MOTION": 14.4570853, "ECCENTRICITY": 0.00197143, "INCLINATION": 74.0196, "RA_OF_ASC_NODE": 201.5431, "ARG_OF_PERICENTER": 327.1177, "MEAN_ANOMALY": 32.8753, "EPHEMERIS_TYPE": 0, "CLASSIFICATION_TYPE": "U", "NORAD_CAT_ID": 35065, "ELEMENT_SET_NO": 999, "REV_AT_EPOCH": 68295, "BSTAR": 0.00050946583, "MEAN_MOTION_DOT": 1.782e-05, "MEAN_MOTION_DDOT": 0}, "tle": {"line1": "1 35065U 93036AHU 25342.87904945  .00001782  00000+0  50947-3 0  9997", "line2": "2 35065  74.0196 201.5431 0019714 327.1177  32.8753 14.45708530682959"}}, "geometry": {"type": "Point", "coordinates": [6.252135957105604, 41.08197699798875]}}, {"type": "Feature", "properties": {"norad_id": 35071, "name": "COSMOS 2251 DEB", "group": "cosmos-2251-debris", "lat": 5.934855980113778, "lon": -177.81376962990592, "alt_km": 543.3485400045647, "timestamp": "2025-12-09T07:41:33.607663+00:00", "meta": {"OBJECT_NAME": "COSMOS 2251 DEB", "OBJECT_ID": "1993-036AJA", "EPOCH": "2025-12-06T06:11:48.969024", "MEAN_MOTION": 15.03269957, "ECCENTRICITY": 0.00683754, "INCLINATION": 73.9314, "RA_OF_ASC_NODE": 186.7627, "ARG_OF_PERICENTER": 85.1943, "MEAN_ANOMALY": 275.7048, "EPHEMERIS_TYPE": 0, "CLASSIFICATION_TYPE": "U", "NORAD_CAT_ID": 35071, "ELEMENT_SET_NO": 999, "REV_AT_EPOCH": 67439, "BSTAR": 0.0011992827, "MEAN_MOTION_DOT": 0.00017109, "MEAN_MOTION_DDOT": 0}, "tle": {"line1": "1 35071U 93036AJA 25340.25820566  .00017109  00000+0  11993-2 0  9997", "line2": "2 35071  73.9314 186.7627 0068375  85.1943 275.7048 15.03269957674390"}}, "geometry": {"type": "Point", "coordinates": [-177.81376962990592, 5.934855980113778]}}, {"type": "Feature", "properties": {"norad_id": 35073, "name": "COSMOS 2251 DEB", "group": "cosmos-2251-debris", "lat": 27.63759829979021, "lon": 148.90831711836495, "alt_km": 562.349499251216, "timestamp": "2025-12-09T07:41:33.607673+00:00", "meta": {"OBJECT_NAME": "COSMOS 2251 DEB", "OBJECT_ID": "1993-036AJC", "EPOCH": "2025-12-06T06:59:58.933248", "MEAN_MOTION": 14.99991639, "ECCENTRICITY": 0.00102924, "INCLINATION": 74.0009, "RA_OF_ASC_NODE": 343.7168, "ARG_OF_PERICENTER": 84.8418, "MEAN_ANOMALY": 275.3943, "EPHEMERIS_TYPE": 0, "CLASSIFICATION_TYPE": "U", "NORAD_CAT_ID": 35073, "ELEMENT_SET_NO": 999, "REV_AT_EPOCH": 67382, "BSTAR": 0.0044204403, "MEAN_MOTION_DOT": 0.00055435, "MEAN_MOTION_DDOT": 0}, "tle": {"line1": "1 35073U 93036AJC 25340.29165432  .00055435  00000+0  44204-2 0  9992", "line2": "2 35073  74.0009 343.7168 0010292  84.8418 275.3943 14.99991639673828"}}, "geometry": {"type": "Point", "coordinates": [148.90831711836495, 27.63759829979021]}}, {"type": "Feature", "properties": {"norad_id": 35284, "name": "COSMOS 2251 DEB", "group": "cosmos-2251-debris", "lat": -70.20163349450493, "lon": -141.88650038397503, "alt_km": 766.1489501593942, "timestamp": "2025-12-09T07:41:33.607683+00:00", "meta": {"OBJECT_NAME": "COSMOS 2251 DEB", "OBJECT_ID": "1993-036AJN", "EPOCH": "2025-12-07T06:41:11.898816", "MEAN_MOTION": 14.38308297, "ECCENTRICITY": 0.00165721, "INCLINATION": 74.049, "RA_OF_ASC_NODE": 274.4779, "ARG_OF_PERICENTER": 351.9978, "MEAN_ANOMALY": 161.4544, "EPHEMERIS_TYPE": 0, "CLASSIFICATION_TYPE": "U", "NORAD_CAT_ID": 35284, "ELEMENT_SET_NO": 999, "REV_AT_EPOCH": 65447, "BSTAR": 0.00033658929, "MEAN_MOTION_DOT": 1e-05, "MEAN_MOTION_DDOT": 0}, "tle": {"line1": "1 35284U 93036AJN 25341.27860994  .00001000  00000+0  33659-3 0  9992", "line2": "2 35284  74.0490 274.4779 0016572 351.9978 161.4544 14.38308297654477"}}, "geometry": {"type": "Point", "coordinates": [-141.88650038397503, -70.20163349450493]}}]}